QIANFAN-65              
1 62795U 25016L   25331.17705391  .00000154  00000+0  21947-3 0  9995
2 62795  88.9751 104.6666 0014485  34.6438 325.5653 13.50979361 45145
QIANFAN-66              
1 62796U 25016M   25331.13176170  .00000146  00000+0  20742-3 0  9992
2 62796  88.9770 104.6384 0015470  30.0316 330.1719 13.50983412 45185
QIANFAN-67              
1 62797U 25016N   25331.13599002  .00000140  00000+0  19847-3 0  9994
2 62797  88.9761 104.6651 0015630  36.6731 323.5487 13.50976245 45155
QIANFAN-68              
1 62798U 25016P   25331.12771211  .00000132  00000+0  18497-3 0  9999
2 62798  88.9765 104.7106 0015634  34.9778 325.2396 13.50978558 45137
QIANFAN-69              
1 62799U 25016Q   25331.14424078  .00000147  00000+0  20910-3 0  9997
2 62799  88.9743 104.5816 0016414  35.7200 324.5046 13.50981572 45174
QIANFAN-70              
1 62800U 25016R   25331.16055764  .00000143  00000+0  20351-3 0  9999
2 62800  88.9764 104.7151 0015759  26.4825 333.7128 13.50972197 45137
QIANFAN-71              
1 62801U 25016S   25331.15647988  .00000146  00000+0  20756-3 0  9996
2 62801  88.9758 104.6960 0016430  39.0647 321.1687 13.50979523 45138
QIANFAN-72              
1 62802U 25016T   25331.09889230  .00000137  00000+0  19316-3 0  9998
2 62802  88.9748 104.7169 0019865  45.2540 315.0224 13.50979391 45116
